start=new Date('2022-09-10T00:00:00.000Z').valueOf();
sats=[{"TIME_SYSTEM":"UTC","ARG_OF_PERICENTER":"90.5920","RA_OF_ASC_NODE":"59.0689","RCS_SIZE":"LARGE","MEAN_ELEMENT_THEORY":"SGP4","DECAY_DATE":null,"MEAN_MOTION":"15.06400470","MEAN_MOTION_DOT":"0.00003279","NORAD_CAT_ID":"45568","REV_AT_EPOCH":"13290","SEMIMAJOR_AXIS":"6925.347","TLE_LINE1":"1 45568U 20025AP  22252.79424171  .00003279  00000-0  23891-3 0  9992","TLE_LINE2":"2 45568  53.0541  59.0689 0001274  90.5920 269.5215 15.06400470132906","PERIOD":"95.592","APOAPSIS":"548.094","OBJECT_NAME":"STARLINK-1363","OBJECT_TYPE":"PAYLOAD","BSTAR":"0.00023891000000","ELEMENT_SET_NO":"999","GP_ID":"212163800","ECCENTRICITY":"0.00012740","COUNTRY_CODE":"US","MEAN_MOTION_DDOT":"0.0000000000000","CENTER_NAME":"EARTH","FILE":"3565505","MEAN_ANOMALY":"269.5215","OBJECT_ID":"2020-025AP","REF_FRAME":"TEME","SITE":"AFETR","LAUNCH_DATE":"2020-04-22","INCLINATION":"53.0541","EPHEMERIS_TYPE":"0","CLASSIFICATION_TYPE":"U","PERIAPSIS":"546.330","EPOCH":"2022-09-09T19:03:42.483744"},{"EPOCH":"2022-09-09T20:23:16.560672","PERIAPSIS":"546.257","CLASSIFICATION_TYPE":"U","LAUNCH_DATE":"2020-04-22","EPHEMERIS_TYPE":"0","INCLINATION":"53.0556","SITE":"AFETR","REF_FRAME":"TEME","OBJECT_ID":"2020-025AQ","MEAN_ANOMALY":"275.8668","CENTER_NAME":"EARTH","FILE":"3565505","MEAN_MOTION_DDOT":"0.0000000000000","ECCENTRICITY":"0.00013720","COUNTRY_CODE":"US","GP_ID":"212164551","ELEMENT_SET_NO":"999","BSTAR":"0.00014482000000","OBJECT_TYPE":"PAYLOAD","OBJECT_NAME":"STARLINK-1366","APOAPSIS":"548.158","TLE_LINE1":"1 45569U 20025AQ  22252.84949723  .00001876  00000-0  14482-3 0  9991","TLE_LINE2":"2 45569  53.0556  58.5783 0001372  84.2477 275.8668 15.06401945132919","PERIOD":"95.592","SEMIMAJOR_AXIS":"6925.343","REV_AT_EPOCH":"13291","MEAN_MOTION_DOT":"0.00001876","NORAD_CAT_ID":"45569","MEAN_MOTION":"15.06401945","DECAY_DATE":null,"MEAN_ELEMENT_THEORY":"SGP4","ARG_OF_PERICENTER":"84.2477","RA_OF_ASC_NODE":"58.5783","RCS_SIZE":"LARGE","TIME_SYSTEM":"UTC"},{"ELEMENT_SET_NO":"999","BSTAR":"0.00021798000000","OBJECT_NAME":"STARLINK-1376","OBJECT_TYPE":"PAYLOAD","APOAPSIS":"548.101","TLE_LINE2":"2 45570  53.0555  58.8989 0001294  90.4375 269.6762 15.06402997132903","PERIOD":"95.592","TLE_LINE1":"1 45570U 20025AR  22252.77578923  .00002967  00000-0  21798-3 0  9995","NORAD_CAT_ID":"45570","MEAN_MOTION_DOT":"0.00002967","SEMIMAJOR_AXIS":"6925.339","REV_AT_EPOCH":"13290","MEAN_ELEMENT_THEORY":"SGP4","DECAY_DATE":null,"MEAN_MOTION":"15.06402997","TIME_SYSTEM":"UTC","RA_OF_ASC_NODE":"58.8989","RCS_SIZE":"LARGE","ARG_OF_PERICENTER":"90.4375","EPOCH":"2022-09-09T18:37:08.189472","CLASSIFICATION_TYPE":"U","PERIAPSIS":"546.308","SITE":"AFETR","REF_FRAME":"TEME","LAUNCH_DATE":"2020-04-22","EPHEMERIS_TYPE":"0","INCLINATION":"53.0555","OBJECT_ID":"2020-025AR","MEAN_ANOMALY":"269.6762","CENTER_NAME":"EARTH","FILE":"3565505","COUNTRY_CODE":"US","ECCENTRICITY":"0.00012940","MEAN_MOTION_DDOT":"0.0000000000000","GP_ID":"212165298"},{"MEAN_ANOMALY":"279.7044","CENTER_NAME":"EARTH","FILE":"3565505","MEAN_MOTION_DDOT":"0.0000000000000","ECCENTRICITY":"0.00012930","COUNTRY_CODE":"US","GP_ID":"212164050","EPOCH":"2022-09-09T17:24:08.350560","PERIAPSIS":"546.321","CLASSIFICATION_TYPE":"U","INCLINATION":"53.0545","LAUNCH_DATE":"2020-04-22","EPHEMERIS_TYPE":"0","REF_FRAME":"TEME","SITE":"AFETR","OBJECT_ID":"2020-025AS","TLE_LINE1":"1 45571U 20025AS  22252.72509665 -.00002235  00000-0 -13119-3 0  9996","TLE_LINE2":"2 45571  53.0545  49.1234 0001293  80.4091 279.7044 15.06398983133053","PERIOD":"95.592","REV_AT_EPOCH":"13305","SEMIMAJOR_AXIS":"6925.352","MEAN_MOTION_DOT":"-0.00002235","NORAD_CAT_ID":"45571","MEAN_MOTION":"15.06398983","MEAN_ELEMENT_THEORY":"SGP4","DECAY_DATE":null,"ARG_OF_PERICENTER":"80.4091","RCS_SIZE":"LARGE","RA_OF_ASC_NODE":"49.1234","TIME_SYSTEM":"UTC","ELEMENT_SET_NO":"999","BSTAR":"-0.00013119000000","OBJECT_TYPE":"PAYLOAD","OBJECT_NAME":"STARLINK-1261","APOAPSIS":"548.112"},{"TLE_LINE2":"2 45572  53.0550  49.4688 0001233  97.6688 262.4441 15.06397606133031","PERIOD":"95.592","TLE_LINE1":"1 45572U 20025AT  22252.65137805  .00001829  00000-0  14167-3 0  9992","NORAD_CAT_ID":"45572","MEAN_MOTION_DOT":"0.00001829","REV_AT_EPOCH":"13303","SEMIMAJOR_AXIS":"6925.356","DECAY_DATE":null,"MEAN_ELEMENT_THEORY":"SGP4","MEAN_MOTION":"15.06397606","TIME_SYSTEM":"UTC","RA_OF_ASC_NODE":"49.4688","RCS_SIZE":"LARGE","ARG_OF_PERICENTER":"97.6688","BSTAR":"0.00014167000000","ELEMENT_SET_NO":"999","OBJECT_NAME":"STARLINK-1320","OBJECT_TYPE":"PAYLOAD","APOAPSIS":"548.075","MEAN_ANOMALY":"262.4441","CENTER_NAME":"EARTH","FILE":"3565505","COUNTRY_CODE":"US","ECCENTRICITY":"0.00012330","MEAN_MOTION_DDOT":"0.0000000000000","GP_ID":"212164300","EPOCH":"2022-09-09T15:37:59.063520","CLASSIFICATION_TYPE":"U","PERIAPSIS":"546.367","REF_FRAME":"TEME","SITE":"AFETR","EPHEMERIS_TYPE":"0","LAUNCH_DATE":"2020-04-22","INCLINATION":"53.0550","OBJECT_ID":"2020-025AT"},{"TLE_LINE2":"2 45573  53.0566  48.9798 0001293  77.8601 282.2533 15.06396311132747","PERIOD":"95.592","TLE_LINE1":"1 45573U 20025AU  22252.76195886  .00002017  00000-0  15425-3 0  9996","SEMIMAJOR_AXIS":"6925.360","REV_AT_EPOCH":"13274","NORAD_CAT_ID":"45573","MEAN_MOTION_DOT":"0.00002017","MEAN_MOTION":"15.06396311","MEAN_ELEMENT_THEORY":"SGP4","DECAY_DATE":null,"RCS_SIZE":"LARGE","RA_OF_ASC_NODE":"48.9798","ARG_OF_PERICENTER":"77.8601","TIME_SYSTEM":"UTC","BSTAR":"0.00015425000000","ELEMENT_SET_NO":"999","OBJECT_TYPE":"PAYLOAD","OBJECT_NAME":"STARLINK-1321","APOAPSIS":"548.120","MEAN_ANOMALY":"282.2533","FILE":"3565505","CENTER_NAME":"EARTH","MEAN_MOTION_DDOT":"0.0000000000000","COUNTRY_CODE":"US","ECCENTRICITY":"0.00012930","GP_ID":"212165051","EPOCH":"2022-09-09T18:17:13.245504","PERIAPSIS":"546.329","CLASSIFICATION_TYPE":"U","INCLINATION":"53.0566","LAUNCH_DATE":"2020-04-22","EPHEMERIS_TYPE":"0","REF_FRAME":"TEME","SITE":"AFETR","OBJECT_ID":"2020-025AU"},{"GP_ID":"212164800","ECCENTRICITY":"0.00012880","COUNTRY_CODE":"US","MEAN_MOTION_DDOT":"0.0000000000000","FILE":"3565505","CENTER_NAME":"EARTH","MEAN_ANOMALY":"274.0500","OBJECT_ID":"2020-025AV","REF_FRAME":"TEME","SITE":"AFETR","LAUNCH_DATE":"2020-04-22","EPHEMERIS_TYPE":"0","INCLINATION":"53.0533","CLASSIFICATION_TYPE":"U","PERIAPSIS":"546.304","EPOCH":"2022-09-09T18:54:22.480416","TIME_SYSTEM":"UTC","ARG_OF_PERICENTER":"86.0636","RA_OF_ASC_NODE":"48.8424","RCS_SIZE":"LARGE","MEAN_ELEMENT_THEORY":"SGP4","DECAY_DATE":null,"MEAN_MOTION":"15.06405766","MEAN_MOTION_DOT":"0.00004040","NORAD_CAT_ID":"45574","SEMIMAJOR_AXIS":"6925.331","REV_AT_EPOCH":"13306","TLE_LINE1":"1 45574U 20025AV  22252.78776019  .00004040  00000-0  28992-3 0  9993","PERIOD":"95.592","TLE_LINE2":"2 45574  53.0533  48.8424 0001288  86.0636 274.0500 15.06405766133065","APOAPSIS":"548.088","OBJECT_NAME":"STARLINK-1324","OBJECT_TYPE":"PAYLOAD","BSTAR":"0.00028992000000","ELEMENT_SET_NO":"999"},{"REF_FRAME":"TEME","SITE":"AFETR","EPHEMERIS_TYPE":"0","LAUNCH_DATE":"2020-04-22","INCLINATION":"52.9989","OBJECT_ID":"2020-025AW","EPOCH":"2022-09-09T19:04:01.116768","CLASSIFICATION_TYPE":"U","PERIAPSIS":"512.256","COUNTRY_CODE":"US","ECCENTRICITY":"0.00016910","MEAN_MOTION_DDOT":"0.0000000000000","GP_ID":"212163551","MEAN_ANOMALY":"310.4206","CENTER_NAME":"EARTH","FILE":"3565505","APOAPSIS":"514.587","BSTAR":"0.00134640000000","ELEMENT_SET_NO":"999","OBJECT_NAME":"STARLINK-1326","OBJECT_TYPE":"PAYLOAD","DECAY_DATE":null,"MEAN_ELEMENT_THEORY":"SGP4","MEAN_MOTION":"15.17493319","TIME_SYSTEM":"UTC","RCS_SIZE":"LARGE","RA_OF_ASC_NODE":"30.8580","ARG_OF_PERICENTER":"49.6935","PERIOD":"94.893","TLE_LINE2":"2 45575  52.9989  30.8580 0001691  49.6935 310.4206 15.17493319133272","TLE_LINE1":"1 45575U 20025AW  22252.79445737  .00027101  00000-0  13464-2 0  9995","NORAD_CAT_ID":"45575","MEAN_MOTION_DOT":"0.00027101","REV_AT_EPOCH":"13327","SEMIMAJOR_AXIS":"6891.556"},{"DECAY_DATE":null,"MEAN_ELEMENT_THEORY":"SGP4","MEAN_MOTION":"15.06396685","TIME_SYSTEM":"UTC","RA_OF_ASC_NODE":"49.0357","RCS_SIZE":"LARGE","ARG_OF_PERICENTER":"81.1784","TLE_LINE2":"2 45576  53.0568  49.0357 0001353  81.1784 278.9358 15.06396685133058","PERIOD":"95.592","TLE_LINE1":"1 45576U 20025AX  22252.74721038  .00001537  00000-0  12209-3 0  9994","NORAD_CAT_ID":"45576","MEAN_MOTION_DOT":"0.00001537","REV_AT_EPOCH":"13305","SEMIMAJOR_AXIS":"6925.359","APOAPSIS":"548.161","BSTAR":"0.00012209000000","ELEMENT_SET_NO":"999","OBJECT_NAME":"STARLINK-1328","OBJECT_TYPE":"PAYLOAD","COUNTRY_CODE":"US","ECCENTRICITY":"0.00013530","MEAN_MOTION_DDOT":"0.0000000000000","GP_ID":"212163801","MEAN_ANOMALY":"278.9358","CENTER_NAME":"EARTH","FILE":"3565505","REF_FRAME":"TEME","SITE":"AFETR","LAUNCH_DATE":"2020-04-22","INCLINATION":"53.0568","EPHEMERIS_TYPE":"0","OBJECT_ID":"2020-025AX","EPOCH":"2022-09-09T17:55:58.976832","CLASSIFICATION_TYPE":"U","PERIAPSIS":"546.287"},{"FILE":"3565505","CENTER_NAME":"EARTH","MEAN_ANOMALY":"249.4775","GP_ID":"212164552","MEAN_MOTION_DDOT":"0.0000000000000","ECCENTRICITY":"0.00013240","COUNTRY_CODE":"US","PERIAPSIS":"543.747","CLASSIFICATION_TYPE":"U","EPOCH":"2022-09-09T18:12:52.602624","OBJECT_ID":"2020-025AY","LAUNCH_DATE":"2020-04-22","INCLINATION":"53.0546","EPHEMERIS_TYPE":"0","REF_FRAME":"TEME","SITE":"AFETR","REV_AT_EPOCH":"13304","SEMIMAJOR_AXIS":"6922.798","MEAN_MOTION_DOT":"0.00016740","NORAD_CAT_ID":"45577","TLE_LINE1":"1 45577U 20025AY  22252.75894216  .00016740  00000-0  11148-2 0  9997","TLE_LINE2":"2 45577  53.0546  48.8746 0001324 110.6357 249.4775 15.07232542133043","PERIOD":"95.539","ARG_OF_PERICENTER":"110.6357","RCS_SIZE":"LARGE","RA_OF_ASC_NODE":"48.8746","TIME_SYSTEM":"UTC","MEAN_MOTION":"15.07232542","DECAY_DATE":null,"MEAN_ELEMENT_THEORY":"SGP4","OBJECT_TYPE":"PAYLOAD","OBJECT_NAME":"STARLINK-1330","ELEMENT_SET_NO":"999","BSTAR":"0.00111480000000","APOAPSIS":"545.580"}];
